SPACEBEENZ-15           
1 52395U 22047B   23009.45990112  .00024704  00000+0  11623-2 0  9995
2 52395  97.4370  95.4399 0007741 171.4392 188.6977 15.19522239 39569
SPACEBEENZ-16           
1 52396U 22047C   23010.18593446  .00025779  00000+0  12130-2 0  9994
2 52396  97.4366  96.1513 0007730 168.9997 191.1408 15.19510463 39677
SPACEBEENZ-17           
1 52397U 22047D   23009.66442996  .00023001  00000+0  10857-2 0  9999
2 52397  97.4367  95.6260 0007876 170.9244 189.2134 15.19424309 39599
SPACEBEENZ-18           
1 52398U 22047E   23010.19280397  .00024596  00000+0  11604-2 0  9996
2 52398  97.4367  96.1432 0007715 168.8106 191.3302 15.19428012 39677
SPACEBEE-140            
1 52399U 22047F   23009.66079000  .00019434  00000+0  94254-3 0  9992
2 52399  97.4373  95.4855 0007960 170.7575 189.3807 15.18516194 39608
SPACEBEE-141            
1 52400U 22047G   23010.23652046  .00018692  00000+0  92384-3 0  9994
2 52400  97.4375  95.9413 0008117 167.9737 192.1692 15.17865301 39678
SPACEBEE-142            
1 52401U 22047H   23010.19137257  .00018337  00000+0  91204-3 0  9998
2 52401  97.4368  95.8415 0007983 168.3631 191.7788 15.17648283 39657
SPACEBEENZ-20           
1 52402U 22047J   23010.20423519  .00023494  00000+0  11107-2 0  9993
2 52402  97.4359  96.1059 0008401 171.9325 188.2047 15.19361291 39676
SPACEBEENZ-22           
1 52403U 22047K   23009.69451491  .00020974  00000+0  10006-2 0  9992
2 52403  97.4365  95.5655 0008561 172.9969 187.1387 15.19069295 39596
SPACEBEENZ-19           
1 52404U 22047L   23009.40923126  .00021671  00000+0  10243-2 0  9999
2 52404  97.4365  95.3366 0008450 175.6363 184.4947 15.19385107 39550
SPACEBEENZ-21           
1 52405U 22047M   23010.20845973  .00023222  00000+0  11000-2 0  9999
2 52405  97.4362  96.1025 0008397 172.2164 187.9203 15.19295579 39670
SPACEBEE-148            
1 52406U 22047N   23009.47719043  .00019319  00000+0  93988-3 0  9993
2 52406  97.4368  95.2509 0008542 174.6161 185.5167 15.18405535 39553
SPACEBEE-149            
1 52407U 22047P   23009.46861126  .00018798  00000+0  93028-3 0  9998
2 52407  97.4365  95.1032 0008546 174.0613 186.0723 15.17815263 39546
SPACEBEE-153            
1 52408U 22047Q   23009.23136385  .00019243  00000+0  94526-3 0  9996
2 52408  97.4403  95.0636 0008463 186.9968 173.1149 15.18070737 39518
SPACEBEE-150            
1 52409U 22047R   23010.19154802  .00018057  00000+0  89648-3 0  9999
2 52409  97.4364  95.8267 0008604 173.2018 186.9334 15.17710216 39650
SPACEBEE-144            
1 52410U 22047S   23009.66257156  .00016897  00000+0  84029-3 0  9995
2 52410  97.4373  95.3326 0007960 173.5655 186.5683 15.17671244 39578
SPACEBEE-145            
1 52411U 22047T   23009.67049260  .00017041  00000+0  84777-3 0  9994
2 52411  97.4372  95.3181 0007906 172.2369 187.8988 15.17657993 39572
SPACEBEE-146            
1 52412U 22047U   23009.49389784  .00019161  00000+0  95379-3 0  9998
2 52412  97.4372  95.0843 0007840 172.6526 187.4824 15.17611805 39545
SPACEBEE-151            
1 52413U 22047V   23009.47628287  .00017413  00000+0  86756-3 0  9998
2 52413  97.4368  95.0984 0008516 176.1255 184.0046 15.17596263 39545
SPACEBEE-152            
1 52414U 22047W   23010.48117057  .00017260  00000+0  86212-3 0  9997
2 52414  97.4361  96.0412 0008610 172.0547 188.0824 15.17507979 39690
SPACEBEE-147            
1 52415U 22047X   23009.68354184  .00016798  00000+0  83913-3 0  9992
2 52415  97.4375  95.3051 0007883 174.6257 185.5063 15.17515916 39578
SPACEBEE-155            
1 52416U 22047Y   23009.47137630  .00016726  00000+0  84963-3 0  9992
2 52416  97.4352  94.9291 0009032 181.0220 179.0996 15.16921172 39538
SPACEBEE-154            
1 52417U 22047Z   23010.22611786  .00017632  00000+0  88231-3 0  9996
2 52417  97.4367  95.7766 0008457 174.4269 185.7060 15.17440235 39656
